#dP2022  9 11 12  0  0.00000000      96 __u+U ITR00 EXT  IAC
## 2227  43200.00000000   900.00000000 59833 0.5000000000000
+  116   C06C07C08C09C10C11C12C13C14C16C19C20C21C22C23C24C25
+        C26C27C28C29C30C32C33C34C35C36C37C38C39C40C41C42C43
+        C44C45C46E01E02E03E04E05E07E08E09E10E11E12E13E14E15
+        E18E19E21E24E25E26E27E30E31E33E34E36G01G02G03G04G05
+        G06G07G08G09G10G11G12G13G14G15G16G17G18G19G20G21G22
+        G24G25G26G27G28G29G30G31G32J02J03R01R02R03R04R05R07
+        R08R09R11R12R13R14R15R17R18R19R20R21R24R25  0  0  0
++         9 10  9 10 10 13  8  8  9 10  8  9  7  8 10  8 10
++         8  8 10  8  9 10  8 10  7  9 10 10 11 10  9  9  9
++         9  8  8  8  8  8  9  6  8  8  9  9  8  9  9  8  7
++         9  9  7  7  8  9  8  7  8  7  8  8  8  9  6  8  9
++         8  8  7  7  8  9  7  8  8  7  7  8  8  7  8  8  8
++         6  7  7  8  8  7  8  7  8  8  9  9  9  8  9  7  8
++        10  7  9  9  8  7  9  9  8  9  9  8  7 10  0  0  0
%c M  cc GPS ccc cccc cccc cccc cccc ccccc ccccc ccccc ccccc
%c cc cc ccc ccc cccc cccc cccc cccc ccccc ccccc ccccc ccccc
%f  0.0000000  0.000000000  0.00000000000  0.000000000000000
%f  0.0000000  0.000000000  0.00000000000  0.000000000000000
%i    0    0    0    0      0      0      0      0         0
%i    0    0    0    0      0      0      0      0         0
/* IAC                                ULTRA-RAPID PREDICTION
/* S/V CLOCKS ARE ALIGNED TO GNSS TIME                      
/* G:C1WC2W R:C1PC2P E:C1XC5X C:C2IC6I J:C1CC2S             
/* PCV:IGS14_2218 OL/AL:FES2004  NONE     YN ORB:CoN CLK:CoN
*  2022 09 12  7 45  0.00000000
PC06  -2513.837901  35997.013192  22010.983562    820.176785
PC07 -12966.142939  25618.862434 -30862.665823   -130.153368
PC08 -18258.149952  36173.310405  11278.089801    468.969732
PC09   3205.365323  39875.332392  14487.785188   -866.190345
PC10  -4870.602187  26675.437247 -32024.842923     97.723298
PC11  18600.494868  11727.552013  17223.163846   -413.801682
PC12  13627.266094  24301.739697   1339.156279   -521.058922
PC13 -11654.128312  36374.878701  17655.230374     78.305232
PC14  27102.485166   4112.679413   5079.704827    647.302061
PC16  -5046.754109  33678.997676  25217.841506    138.263865
PC19 -27468.655514   2379.406728   4387.365528   -636.489182
PC20 -23493.821737  -8893.829597 -12177.553055    561.573142
PC21   4984.194572  15621.671854  22584.635787   -378.847734
PC22 -15796.069580  12750.214887  19150.615989   -586.190457
PC23  16143.311325 -22612.239562  -2625.202563    -44.699313
PC24  11566.083461  11972.320637 -22396.606580   -104.514102
PC25  19800.432880  -9181.660076 -17405.212713   -679.406525
PC26  -1632.528545  23683.100752 -14649.816775     -6.375306
PC27  -7954.670410 -25760.036302   7171.215121     19.647133
PC28   6198.366739 -18240.799211  20195.801868     12.037323
PC29 -17548.940588   -237.256089 -21703.833435     12.443096
PC30 -18424.158805 -18644.829770  -9560.551779    502.879429
PC32  -5030.754462 -15596.727987 -22580.941601   -807.518112
PC33  27460.231731  -2469.834503  -4266.713173   -642.278343
PC34  18697.858241  17859.684130  10504.568710   -315.380697
PC35  -6672.277660  17445.541507 -20750.214809    455.174121
PC36 -19942.590632   8096.311387  17789.019239   -168.987674
PC37   3245.744109 -24116.001963  13701.954614   -169.932329
PC38 -22043.358962  35687.290786   3138.531693     23.679098
PC39  -7343.360131  30054.670411  28750.608265     -0.421216
PC40 -18679.472543  18818.276573 -32837.919289     -4.004105
PC41  16260.860775 -12614.773463 -18802.648476    -71.190047
PC42  22694.194843   9540.499188  13159.813421   -280.650188
PC43  17906.944021   1057.465501  21371.929471     13.796092
PC44   8674.623053  25497.776347  -7365.047171     47.528631
PC45 -15964.790314  22756.348349   2321.531996    858.877781
PC46 -12586.292037 -10334.881533  22670.913510   -536.954363
PE01 -27114.435984  11060.832896   4318.357979   -526.488896
PE02  27093.706995 -11203.520398  -4120.634549    324.202114
PE03  22337.729317  -2170.309722 -19300.868303   -599.037744
PE04  -5787.069720  16301.692763  24021.283884  -1113.717966
PE05  26122.961959  13567.698623  -3109.431348   -144.779739
PE07 -14664.631604 -21158.118044 -14617.753953   -704.684830
PE08   5557.622175 -16255.107726 -24109.538057   -597.391955
PE09  14659.224245  21045.400665  14763.770983   -655.698329
PE10  -1118.919081  29561.800084   -743.362313   -476.273731
PE11   5497.318911  27462.776154   9569.108621   2255.831874
PE12  -7268.800398  26850.343946 -10134.335485   -164.826418
PE13  -5057.418071 -27788.999751  -8862.123331    430.561854
PE14  -5692.307527 -21202.274904  14970.038402  -1722.540762
PE15   7289.022036 -26764.040812  10340.512085    720.932086
PE18  -6515.246021  19175.538702 -22466.219888   -985.784271
PE19 -23681.331769   -170.337437  17758.342064  -4553.264253
PE21 -22282.677817  -3003.098641  19259.125590   -757.257641
PE24   3273.393822  16943.783035 -24051.440265   -832.395256
PE25  22099.011477   3222.180140 -19415.524587   -587.439135
PE26 -14693.695369 -11588.892672 -22938.356720  -1603.597566
PE27  -4409.676419 -16421.978338  24239.828754   -390.161729
PE30  16690.546180 -19888.678471  14224.088926   -830.165875
PE31 -15890.626686  20036.765189 -14890.290165   -503.391708
PE33 -15262.392333   9951.008500 -23328.322427   -453.646019
PE34  15204.244205 -10205.970034  23250.807031     -4.102365
PE36  14321.465303  12502.417676  22685.205989   -430.280891
PG01  13116.333655 -15625.667355  16506.972975    285.349814
PG02 -14492.350451   7018.805365 -20538.492491   -646.312429
PG03  23278.353185 -12271.184337  -3260.795639   -349.596895
PG04  15324.437133  -6239.601961 -20794.668771   -119.920350
PG05 -24675.557156   4843.947183  -8935.116299    -96.368820
PG06  -7518.945042 -20315.981473 -15257.884524    458.092713
PG07   5619.993337 -25411.157679  -3319.391714    308.196763
PG08  21344.145097   1704.635657  15899.882496    -84.290740
PG09   4276.885224 -15452.226551 -21246.172340   -297.099676
PG10   3178.822298  14823.074308  21933.753529     -2.937338
PG11 -13020.866641  -9870.103559 -20947.364672    -15.951210
PG12 -24342.936000  10224.047719  -2584.903613   -277.045844
PG13 -21630.667674 -11205.280376  10636.575211    385.958426
PG14   -692.684344 -15946.605268  21221.612260   -104.112896
PG15 -21567.791213    826.322818  15233.104936    -29.680392
PG16  22933.336354   2611.908992 -13812.932820   -523.869159
PG17  -9003.622076 -20605.405714  14523.975806    658.303299
PG18  -5588.165216  25740.327424  -2794.466974     51.261134
PG19 -16864.055949 -20108.691675   4643.049926    209.615995
PG20 -18028.909119  -4745.044255 -18824.813300    487.090792
PG21  15227.736013  -5859.435495  21441.785165    159.536493
PG22  18288.742217  19210.210466   3074.568556    326.391101
PG24 -14221.800600  11829.472865  18590.427781    138.273607
PG25 -16167.015375  16823.476519 -12718.436581    371.134914
PG26  16411.736993   7904.105803 -19513.463347    228.140737
PG27  23008.780039  12220.197257   5933.219865    212.327879
PG28 -10044.442216 -12486.864156  21651.732256    338.647662
PG29  -5966.923551  14149.145857 -21705.785075   -550.868113
PG30  -1836.108518 -25399.066354   7162.987023   -536.901537
PG31   8797.582318  19003.975731 -16196.765954   -193.061397
PG32  12865.848220  20073.051010  12053.998733   -230.864597
PJ02 -36157.171204  20296.461998  -3060.753046     -4.868166
PJ03 -19646.626088  25619.695413 -22508.579200     -1.521495
PR01  25120.024059   4346.444063   -726.691621     14.624534
PR02  17509.886974  -4765.697421 -17920.957749    -22.646336
PR03   -105.161416 -11117.224773 -22915.170346     63.562580
PR04 -17309.007127 -11007.429612 -15130.440782    157.294136
PR05 -24970.727530  -5044.612633    985.406064     99.506601
PR07   1036.176284  11299.122920  22882.271757     40.854276
PR08  17438.787910  11022.950943  15074.096823    -67.128102
PR09 -17910.689656  17764.165605   4073.150760     76.273790
PR11   4038.711354  11520.934091 -22383.953643     27.696913
PR12  16362.881525  -4753.717760 -18956.470754     21.172604
PR13  18247.358853 -16938.899677  -5552.879847    -26.701692
PR14   9170.431707 -19946.135453  12990.563454     24.280186
PR15  -4826.013661 -10890.935633  22580.527268     93.770026
PR17  -2649.600068 -23311.983442  10077.495954    560.442701
PR18 -10096.334255 -22427.370633  -6673.461934     42.034656
PR19 -12110.655256 -11438.479958 -19324.741904   -203.381382
PR20  -7350.864056  10218.189692 -22185.774944    -78.218517
PR21   3380.056278  23750.529615  -8618.626099   -333.043382
PR24   7200.433691 -11198.231605  21778.322839    114.130626
PR25   9596.187843  22472.107808   7358.235618     13.088601
EOF
